{"type": "FeatureCollection", "features": [ {"type": "Feature", "properties": {"norad_id": 33621, "name": "FENGYUN 1C DEB", "group": "fengyun-1c-debris", "lat": 48.648707374346145, "lon": 179.57930960173283, "alt_km": 808.5528438212023, "timestamp": "2025-12-03T10:52:57.740917+00:00", "meta": {"OBJECT_NAME": "FENGYUN 1C DEB", "OBJECT_ID": "1999-025DDE", "EPOCH": "2025-11-24T20:15:43.256160", "MEAN_MOTION": 14.19392117, "ECCENTRICITY": 0.0285764, "INCLINATION": 98.141, "RA_OF_ASC_NODE": 181.012, "ARG_OF_PERICENTER": 346.9455, "MEAN_ANOMALY": 12.4433, "EPHEMERIS_TYPE": 0, "CLASSIFICATION_TYPE": "U", "NORAD_CAT_ID": 33621, "ELEMENT_SET_NO": 999, "REV_AT_EPOCH": 63990, "BSTAR": 0.00068783, "MEAN_MOTION_DOT": 2.13e-05, "MEAN_MOTION_DDOT": 0}, "tle": {"line1": "1 33621U 99025DDE 25328.84425065  .00002130  00000+0  68783-3 0  9994", "line2": "2 33621  98.1410 181.0120 0285764 346.9455  12.4433 14.19392117639903"}}, "geometry": {"type": "Point", "coordinates": [179.57930960173283, 48.648707374346145]}}, {"type": "Feature", "properties": {"norad_id": 33625, "name": "FENGYUN 1C DEB", "group": "fengyun-1c-debris", "lat": -14.71086783519611, "lon": 90.00138210168171, "alt_km": 856.0802080844178, "timestamp": "2025-12-03T10:52:57.740927+00:00", "meta": {"OBJECT_NAME": "FENGYUN 1C DEB", "OBJECT_ID": "1999-025DDJ", "EPOCH": "2025-12-01T01:24:31.444992", "MEAN_MOTION": 14.60592393, "ECCENTRICITY": 0.02269611, "INCLINATION": 98.6203, "RA_OF_ASC_NODE": 85.2252, "ARG_OF_PERICENTER": 171.2387, "MEAN_ANOMALY": 189.288, "EPHEMERIS_TYPE": 0, "CLASSIFICATION_TYPE": "U", "NORAD_CAT_ID": 33625, "ELEMENT_SET_NO": 999, "REV_AT_EPOCH": 61220, "BSTAR": 0.0017865562, "MEAN_MOTION_DOT": 0.00012473, "MEAN_MOTION_DDOT": 0}, "tle": {"line1": "1 33625U 99025DDJ 25335.05869728  .00012473  00000+0  17866-2 0  9993", "line2": "2 33625  98.6203  85.2252 0226961 171.2387 189.2880 14.60592393612207"}}, "geometry": {"type": "Point", "coordinates": [90.00138210168171, -14.71086783519611]}}, {"type": "Feature", "properties": {"norad_id": 33630, "name": "FENGYUN 1C DEB", "group": "fengyun-1c-debris", "lat": 39.10420389424737, "lon": -89.0000396155158, "alt_km": 761.1338032833783, "timestamp": "2025-12-03T10:52:57.740937+00:00", "meta": {"OBJECT_NAME": "FENGYUN 1C DEB", "OBJECT_ID": "1999-025DDP", "EPOCH": "2025-12-02T00:21:31.303296", "MEAN_MOTION": 14.17690711, "ECCENTRICITY": 0.01353981, "INCLINATION": 98.6162, "RA_OF_ASC_NODE": 82.5253, "ARG_OF_PERICENTER": 98.8286, "MEAN_ANOMALY": 262.8248, "EPHEMERIS_TYPE": 0, "CLASSIFICATION_TYPE": "U", "NORAD_CAT_ID": 33630, "ELEMENT_SET_NO": 999, "REV_AT_EPOCH": 64259, "BSTAR": 0.00047449858, "MEAN_MOTION_DOT": 1.016e-05, "MEAN_MOTION_DDOT": 0}, "tle": {"line1": "1 33630U 99025DDP 25336.01494564  .00001016  00000+0  47450-3 0  9992", "line2": "2 33630  98.6162  82.5253 0135398  98.8286 262.8248 14.17690711642599"}}, "geometry": {"type": "Point", "coordinates": [-89.0000396155158, 39.10420389424737]}}, {"type": "Feature", "properties": {"norad_id": 33633, "name": "FENGYUN 1C DEB", "group": "fengyun-1c-debris", "lat": 49.90044352590538, "lon": -97.56161235649797, "alt_km": 781.3858502315043, "timestamp": "2025-12-03T10:52:57.740947+00:00", "meta": {"OBJECT_NAME": "FENGYUN 1C DEB", "OBJECT_ID": "1999-025DDS", "EPOCH": "2025-11-16T17:57:06.933888", "MEAN_MOTION": 14.18965681, "ECCENTRICITY": 0.00839409, "INCLINATION": 99.0586, "RA_OF_ASC_NODE": 54.4483, "ARG_OF_PERICENTER": 222.9547, "MEAN_ANOMALY": 290.5713, "EPHEMERIS_TYPE": 0, "CLASSIFICATION_TYPE": "U", "NORAD_CAT_ID": 33633, "ELEMENT_SET_NO": 999, "REV_AT_EPOCH": 90342, "BSTAR": 0.003598007, "MEAN_MOTION_DOT": 7.732e-05, "MEAN_MOTION_DDOT": 0}, "tle": {"line1": "1 33633U 99025DDS 25320.74799692  .00007732  00000+0  35980-2 0  9993", "line2": "2 33633  99.0586  54.4483 0083940 222.9547 290.5713 14.18965681903424"}}, "geometry": {"type": "Point", "coordinates": [-97.56161235649797, 49.90044352590538]}}, {"type": "Feature", "properties": {"norad_id": 33637, "name": "FENGYUN 1C DEB", "group": "fengyun-1c-debris", "lat": 32.28374901603573, "lon": -152.02212833148835, "alt_km": 717.0432318072862, "timestamp": "2025-12-03T10:52:57.740958+00:00", "meta": {"OBJECT_NAME": "FENGYUN 1C DEB", "OBJECT_ID": "1999-025DDW", "EPOCH": "2025-12-02T20:49:29.953056", "MEAN_MOTION": 14.36621291, "ECCENTRICITY": 0.0083041, "INCLINATION": 98.4948, "RA_OF_ASC_NODE": 21.982, "ARG_OF_PERICENTER": 180.571, "MEAN_ANOMALY": 179.5395, "EPHEMERIS_TYPE": 0, "CLASSIFICATION_TYPE": "U", "NORAD_CAT_ID": 33637, "ELEMENT_SET_NO": 999, "REV_AT_EPOCH": 64696, "BSTAR": 0.001616, "MEAN_MOTION_DOT": 4.904e-05, "MEAN_MOTION_DDOT": 0}, "tle": {"line1": "1 33637U 99025DDW 25336.86770779  .00004904  00000+0  16160-2 0  9999", "line2": "2 33637  98.4948  21.9820 0083041 180.5710 179.5395 14.36621291646961"}}, "geometry": {"type": "Point", "coordinates": [-152.02212833148835, 32.28374901603573]}}, {"type": "Feature", "properties": {"norad_id": 33638, "name": "FENGYUN 1C DEB", "group": "fengyun-1c-debris", "lat": 12.591402083509166, "lon": -132.65215910711885, "alt_km": 947.7299158907044, "timestamp": "2025-12-03T10:52:57.740968+00:00", "meta": {"OBJECT_NAME": "FENGYUN 1C DEB", "OBJECT_ID": "1999-025DDX", "EPOCH": "2025-12-01T13:13:33.178944", "MEAN_MOTION": 13.69256804, "ECCENTRICITY": 0.02658611, "INCLINATION": 98.4646, "RA_OF_ASC_NODE": 227.5799, "ARG_OF_PERICENTER": 302.8995, "MEAN_ANOMALY": 54.6828, "EPHEMERIS_TYPE": 0, "CLASSIFICATION_TYPE": "U", "NORAD_CAT_ID": 33638, "ELEMENT_SET_NO": 999, "REV_AT_EPOCH": 60762, "BSTAR": 0.0015515248, "MEAN_MOTION_DOT": 1.686e-05, "MEAN_MOTION_DDOT": 0}, "tle": {"line1": "1 33638U 99025DDX 25335.55107846  .00001686  00000+0  15515-2 0  9991", "line2": "2 33638  98.4646 227.5799 0265861 302.8995  54.6828 13.69256804607625"}}, "geometry": {"type": "Point", "coordinates": [-132.65215910711885, 12.591402083509166]}}, {"type": "Feature", "properties": {"norad_id": 33639, "name": "FENGYUN 1C DEB", "group": "fengyun-1c-debris", "lat": 77.57121906072089, "lon": -67.64802550036364, "alt_km": 778.0278337268055, "timestamp": "2025-12-03T10:52:57.740978+00:00", "meta": {"OBJECT_NAME": "FENGYUN 1C DEB", "OBJECT_ID": "1999-025DDY", "EPOCH": "2025-11-29T11:23:00.512736", "MEAN_MOTION": 14.40164015, "ECCENTRICITY": 0.00492272, "INCLINATION": 98.7122, "RA_OF_ASC_NODE": 64.2163, "ARG_OF_PERICENTER": 328.9041, "MEAN_ANOMALY": 30.9235, "EPHEMERIS_TYPE": 0, "CLASSIFICATION_TYPE": "U", "NORAD_CAT_ID": 33639, "ELEMENT_SET_NO": 999, "REV_AT_EPOCH": 60391, "BSTAR": 0.0019761745, "MEAN_MOTION_DOT": 6.293e-05, "MEAN_MOTION_DDOT": 0}, "tle": {"line1": "1 33639U 99025DDY 25333.47431149  .00006293  00000+0  19762-2 0  9994", "line2": "2 33639  98.7122  64.2163 0049227 328.9041  30.9235 14.40164015603915"}}, "geometry": {"type": "Point", "coordinates": [-67.64802550036364, 77.57121906072089]}}, {"type": "Feature", "properties": {"norad_id": 33640, "name": "FENGYUN 1C DEB", "group": "fengyun-1c-debris", "lat": 76.10322073791467, "lon": 138.7915798860048, "alt_km": 727.8503295684841, "timestamp": "2025-12-03T10:52:57.740988+00:00", "meta": {"OBJECT_NAME": "FENGYUN 1C DEB", "OBJECT_ID": "1999-025DDZ", "EPOCH": "2025-12-03T02:06:30.767040", "MEAN_MOTION": 14.45837469, "ECCENTRICITY": 0.0090219, "INCLINATION": 98.8396, "RA_OF_ASC_NODE": 279.4364, "ARG_OF_PERICENTER": 188.6079, "MEAN_ANOMALY": 171.3569, "EPHEMERIS_TYPE": 0, "CLASSIFICATION_TYPE": "U", "NORAD_CAT_ID": 33640, "ELEMENT_SET_NO": 999, "REV_AT_EPOCH": 92203, "BSTAR": 0.00064693, "MEAN_MOTION_DOT": 2.364e-05, "MEAN_MOTION_DDOT": 0}, "tle": {"line1": "1 33640U 99025DDZ 25337.08785610  .00002364  00000+0  64693-3 0  9991", "line2": "2 33640  98.8396 279.4364 0090219 188.6079 171.3569 14.45837469922035"}}, "geometry": {"type": "Point", "coordinates": [138.7915798860048, 76.10322073791467]}}, {"type": "Feature", "properties": {"norad_id": 33648, "name": "FENGYUN 1C DEB", "group": "fengyun-1c-debris", "lat": 80.33247119487676, "lon": -87.8715095759994, "alt_km": 866.36679404593, "timestamp": "2025-12-03T10:52:57.740998+00:00", "meta": {"OBJECT_NAME": "FENGYUN 1C DEB", "OBJECT_ID": "1999-025DEH", "EPOCH": "2025-12-01T19:21:03.618432", "MEAN_MOTION": 14.11767445, "ECCENTRICITY": 0.00683547, "INCLINATION": 98.7193, "RA_OF_ASC_NODE": 334.8003, "ARG_OF_PERICENTER": 205.3153, "MEAN_ANOMALY": 154.4664, "EPHEMERIS_TYPE": 0, "CLASSIFICATION_TYPE": "U", "NORAD_CAT_ID": 33648, "ELEMENT_SET_NO": 999, "REV_AT_EPOCH": 64222, "BSTAR": 0.00013911279, "MEAN_MOTION_DOT": 2.16e-06, "MEAN_MOTION_DDOT": 0}, "tle": {"line1": "1 33648U 99025DEH 25335.80629188  .00000216  00000+0  13911-3 0  9995", "line2": "2 33648  98.7193 334.8003 0068354 205.3153 154.4664 14.11767445642225"}}, "geometry": {"type": "Point", "coordinates": [-87.8715095759994, 80.33247119487676]}}, {"type": "Feature", "properties": {"norad_id": 33650, "name": "FENGYUN 1C DEB", "group": "fengyun-1c-debris", "lat": -77.74862137821884, "lon": -83.94345562284967, "alt_km": 1040.0419386537187, "timestamp": "2025-12-03T10:52:57.741008+00:00", "meta": {"OBJECT_NAME": "FENGYUN 1C DEB", "OBJECT_ID": "1999-025DEK", "EPOCH": "2025-11-29T05:22:43.300128", "MEAN_MOTION": 13.89153147, "ECCENTRICITY": 0.01505018, "INCLINATION": 98.9878, "RA_OF_ASC_NODE": 138.7642, "ARG_OF_PERICENTER": 115.9177, "MEAN_ANOMALY": 245.7581, "EPHEMERIS_TYPE": 0, "CLASSIFICATION_TYPE": "U", "NORAD_CAT_ID": 33650, "ELEMENT_SET_NO": 999, "REV_AT_EPOCH": 68621, "BSTAR": 0.00077422425, "MEAN_MOTION_DOT": 9.89e-06, "MEAN_MOTION_DDOT": 0}, "tle": {"line1": "1 33650U 99025DEK 25333.22411227  .00000989  00000+0  77422-3 0  9999", "line2": "2 33650  98.9878 138.7642 0150501 115.9177 245.7581 13.89153147686219"}}, "geometry": {"type": "Point", "coordinates": [-83.94345562284967, -77.74862137821884]}}]}